ATLAS CENTAUR R/B       
1 06155U 72065B   26046.46359934  .00001362  00000+0  18884-3 0  9991
2 06155  35.0015  75.9976 0033822 184.2290 175.8128 14.77619989837977
SL-8 R/B                
1 08459U 75112B   26046.45267475  .00000213  00000+0  78711-4 0  9993
2 08459  74.0591  59.8201 0015137 161.3567 198.8145 14.38192065628679
SL-3 R/B                
1 10114U 77057B   26046.76510323  .00014969  00000+0  32066-3 0  9996
2 10114  97.5733 217.7364 0007506  11.1148 349.0264 15.44844463664947
SEASAT 1                
1 10967U 78064A   26046.77590237  .00000278  00000+0  11619-3 0  9993
2 10967 108.0158  79.5119 0001721 292.0540  68.0423 14.46142614503344
SL-14 R/B               
1 11267U 79011B   26046.64839115  .00000653  00000+0  61955-4 0  9993
2 11267  82.5241 117.4863 0017340 128.0424 232.2364 14.91881471525498
SL-8 R/B                
1 11574U 79089B   26046.68911641  .00000268  00000+0  89062-4 0  9999
2 11574  74.0693 131.7694 0016768 306.9746  52.9875 14.42336919432932
SL-14 R/B               
1 11672U 80005B   26046.78115891  .00000690  00000+0  67363-4 0  9991
2 11672  82.5173 328.0125 0014338 233.3983 126.5918 14.90902057473223
SL-8 R/B                
1 12139U 81003B   26046.80846346  .00016031  00000+0  42287-3 0  9991
2 12139  82.9402 310.2430 0262594 254.9277 102.2765 15.10165163311377
SL-3 R/B                
1 12465U 81046B   26046.78162938  .00015510  00000+0  36770-3 0  9996
2 12465  81.2345 316.0342 0020794  94.4081 265.9537 15.41379008435052
SL-3 R/B                
1 12904U 81103B   26046.80287607  .00006844  00000+0  30595-3 0  9991
2 12904  81.1557 239.1059 0013318   3.5461 356.5862 15.21104006969907
SL-3 R/B                
1 13068U 82013B   26046.82031400  .00005417  00000+0  23631-3 0  9992
2 13068  81.1749 186.3927 0021720 253.0125 106.8726 15.21767542401023
SL-3 R/B                
1 13154U 82039B   26046.78941819  .00002758  00000+0  16682-3 0  9998
2 13154  81.1595 241.2071 0030035  36.0688 324.2555 15.09954793378336
