CCSDS_OMM_VERS = 2.0
CREATION_DATE  = 
ORIGINATOR     = 

OBJECT_NAME    = ATLAS CENTAUR R/B
OBJECT_ID      = 1972-065B
CENTER_NAME    = EARTH
REF_FRAME      = TEME
TIME_SYSTEM    = UTC
MEAN_ELEMENT_THEORY = SGP/SGP4

EPOCH          = 2026-02-15T11:07:34.982976
MEAN_MOTION    = 14.77619989
ECCENTRICITY   = .0033822
INCLINATION    = 35.0015
RA_OF_ASC_NODE = 75.9976
ARG_OF_PERICENTER = 184.2290
MEAN_ANOMALY   = 175.8128

EPHEMERIS_TYPE = 0
CLASSIFICATION_TYPE = U
NORAD_CAT_ID   = 6155
ELEMENT_SET_NO = 999
REV_AT_EPOCH   = 83797
BSTAR          = .18884E-3
MEAN_MOTION_DOT = .1362E-4
MEAN_MOTION_DDOT = 0

CCSDS_OMM_VERS = 2.0
CREATION_DATE  = 
ORIGINATOR     = 

OBJECT_NAME    = SL-8 R/B
OBJECT_ID      = 1975-112B
CENTER_NAME    = EARTH
REF_FRAME      = TEME
TIME_SYSTEM    = UTC
MEAN_ELEMENT_THEORY = SGP/SGP4

EPOCH          = 2026-02-15T10:51:51.098400
MEAN_MOTION    = 14.38192065
ECCENTRICITY   = .00151376
INCLINATION    = 74.0591
RA_OF_ASC_NODE = 59.8201
ARG_OF_PERICENTER = 161.3567
MEAN_ANOMALY   = 198.8145

EPHEMERIS_TYPE = 0
CLASSIFICATION_TYPE = U
NORAD_CAT_ID   = 8459
ELEMENT_SET_NO = 999
REV_AT_EPOCH   = 62867
BSTAR          = .78710712E-4
MEAN_MOTION_DOT = .213E-5
MEAN_MOTION_DDOT = 0

CCSDS_OMM_VERS = 2.0
CREATION_DATE  = 
ORIGINATOR     = 

OBJECT_NAME    = SL-3 R/B
OBJECT_ID      = 1977-057B
CENTER_NAME    = EARTH
REF_FRAME      = TEME
TIME_SYSTEM    = UTC
MEAN_ELEMENT_THEORY = SGP/SGP4

EPOCH          = 2026-02-15T18:21:44.919072
MEAN_MOTION    = 15.44844463
ECCENTRICITY   = .0007506
INCLINATION    = 97.5733
RA_OF_ASC_NODE = 217.7364
ARG_OF_PERICENTER = 11.1148
MEAN_ANOMALY   = 349.0264

EPHEMERIS_TYPE = 0
CLASSIFICATION_TYPE = U
NORAD_CAT_ID   = 10114
ELEMENT_SET_NO = 999
REV_AT_EPOCH   = 66494
BSTAR          = .32066E-3
MEAN_MOTION_DOT = .14969E-3
MEAN_MOTION_DDOT = 0

CCSDS_OMM_VERS = 2.0
CREATION_DATE  = 
ORIGINATOR     = 

OBJECT_NAME    = SEASAT 1
OBJECT_ID      = 1978-064A
CENTER_NAME    = EARTH
REF_FRAME      = TEME
TIME_SYSTEM    = UTC
MEAN_ELEMENT_THEORY = SGP/SGP4

EPOCH          = 2026-02-15T18:37:17.964768
MEAN_MOTION    = 14.46142614
ECCENTRICITY   = .0001721
INCLINATION    = 108.0158
RA_OF_ASC_NODE = 79.5119
ARG_OF_PERICENTER = 292.0540
MEAN_ANOMALY   = 68.0423

EPHEMERIS_TYPE = 0
CLASSIFICATION_TYPE = U
NORAD_CAT_ID   = 10967
ELEMENT_SET_NO = 999
REV_AT_EPOCH   = 50334
BSTAR          = .11619E-3
MEAN_MOTION_DOT = .278E-5
MEAN_MOTION_DDOT = 0

CCSDS_OMM_VERS = 2.0
CREATION_DATE  = 
ORIGINATOR     = 

OBJECT_NAME    = SL-14 R/B
OBJECT_ID      = 1979-011B
CENTER_NAME    = EARTH
REF_FRAME      = TEME
TIME_SYSTEM    = UTC
MEAN_ELEMENT_THEORY = SGP/SGP4

EPOCH          = 2026-02-15T15:33:40.995360
MEAN_MOTION    = 14.91881471
ECCENTRICITY   = .001734
INCLINATION    = 82.5241
RA_OF_ASC_NODE = 117.4863
ARG_OF_PERICENTER = 128.0424
MEAN_ANOMALY   = 232.2364

EPHEMERIS_TYPE = 0
CLASSIFICATION_TYPE = U
NORAD_CAT_ID   = 11267
ELEMENT_SET_NO = 999
REV_AT_EPOCH   = 52549
BSTAR          = .61955E-4
MEAN_MOTION_DOT = .653E-5
MEAN_MOTION_DDOT = 0

CCSDS_OMM_VERS = 2.0
CREATION_DATE  = 
ORIGINATOR     = 

OBJECT_NAME    = SL-8 R/B
OBJECT_ID      = 1979-089B
CENTER_NAME    = EARTH
REF_FRAME      = TEME
TIME_SYSTEM    = UTC
MEAN_ELEMENT_THEORY = SGP/SGP4

EPOCH          = 2026-02-15T16:32:19.657824
MEAN_MOTION    = 14.42336919
ECCENTRICITY   = .0016768
INCLINATION    = 74.0693
RA_OF_ASC_NODE = 131.7694
ARG_OF_PERICENTER = 306.9746
MEAN_ANOMALY   = 52.9875

EPHEMERIS_TYPE = 0
CLASSIFICATION_TYPE = U
NORAD_CAT_ID   = 11574
ELEMENT_SET_NO = 999
REV_AT_EPOCH   = 43293
BSTAR          = .89062E-4
MEAN_MOTION_DOT = .268E-5
MEAN_MOTION_DDOT = 0

CCSDS_OMM_VERS = 2.0
CREATION_DATE  = 
ORIGINATOR     = 

OBJECT_NAME    = SL-14 R/B
OBJECT_ID      = 1980-005B
CENTER_NAME    = EARTH
REF_FRAME      = TEME
TIME_SYSTEM    = UTC
MEAN_ELEMENT_THEORY = SGP/SGP4

EPOCH          = 2026-02-15T18:44:52.129824
MEAN_MOTION    = 14.90902057
ECCENTRICITY   = .0014338
INCLINATION    = 82.5173
RA_OF_ASC_NODE = 328.0125
ARG_OF_PERICENTER = 233.3983
MEAN_ANOMALY   = 126.5918

EPHEMERIS_TYPE = 0
CLASSIFICATION_TYPE = U
NORAD_CAT_ID   = 11672
ELEMENT_SET_NO = 999
REV_AT_EPOCH   = 47322
BSTAR          = .67363E-4
MEAN_MOTION_DOT = .69E-5
MEAN_MOTION_DDOT = 0

CCSDS_OMM_VERS = 2.0
CREATION_DATE  = 
ORIGINATOR     = 

OBJECT_NAME    = SL-8 R/B
OBJECT_ID      = 1981-003B
CENTER_NAME    = EARTH
REF_FRAME      = TEME
TIME_SYSTEM    = UTC
MEAN_ELEMENT_THEORY = SGP/SGP4

EPOCH          = 2026-02-15T19:24:11.242944
MEAN_MOTION    = 15.10165163
ECCENTRICITY   = .0262594
INCLINATION    = 82.9402
RA_OF_ASC_NODE = 310.2430
ARG_OF_PERICENTER = 254.9277
MEAN_ANOMALY   = 102.2765

EPHEMERIS_TYPE = 0
CLASSIFICATION_TYPE = U
NORAD_CAT_ID   = 12139
ELEMENT_SET_NO = 999
REV_AT_EPOCH   = 31137
BSTAR          = .42287E-3
MEAN_MOTION_DOT = .16031E-3
MEAN_MOTION_DDOT = 0

CCSDS_OMM_VERS = 2.0
CREATION_DATE  = 
ORIGINATOR     = 

OBJECT_NAME    = SL-3 R/B
OBJECT_ID      = 1981-046B
CENTER_NAME    = EARTH
REF_FRAME      = TEME
TIME_SYSTEM    = UTC
MEAN_ELEMENT_THEORY = SGP/SGP4

EPOCH          = 2026-02-15T18:45:32.778432
MEAN_MOTION    = 15.41379008
ECCENTRICITY   = .0020794
INCLINATION    = 81.2345
RA_OF_ASC_NODE = 316.0342
ARG_OF_PERICENTER = 94.4081
MEAN_ANOMALY   = 265.9537

EPHEMERIS_TYPE = 0
CLASSIFICATION_TYPE = U
NORAD_CAT_ID   = 12465
ELEMENT_SET_NO = 999
REV_AT_EPOCH   = 43505
BSTAR          = .3677E-3
MEAN_MOTION_DOT = .1551E-3
MEAN_MOTION_DDOT = 0

CCSDS_OMM_VERS = 2.0
CREATION_DATE  = 
ORIGINATOR     = 

OBJECT_NAME    = SL-3 R/B
OBJECT_ID      = 1981-103B
CENTER_NAME    = EARTH
REF_FRAME      = TEME
TIME_SYSTEM    = UTC
MEAN_ELEMENT_THEORY = SGP/SGP4

EPOCH          = 2026-02-15T19:16:08.492448
MEAN_MOTION    = 15.21104006
ECCENTRICITY   = .0013318
INCLINATION    = 81.1557
RA_OF_ASC_NODE = 239.1059
ARG_OF_PERICENTER = 3.5461
MEAN_ANOMALY   = 356.5862

EPHEMERIS_TYPE = 0
CLASSIFICATION_TYPE = U
NORAD_CAT_ID   = 12904
ELEMENT_SET_NO = 999
REV_AT_EPOCH   = 96990
BSTAR          = .30595E-3
MEAN_MOTION_DOT = .6844E-4
MEAN_MOTION_DDOT = 0

CCSDS_OMM_VERS = 2.0
CREATION_DATE  = 
ORIGINATOR     = 

OBJECT_NAME    = SL-3 R/B
OBJECT_ID      = 1982-013B
CENTER_NAME    = EARTH
REF_FRAME      = TEME
TIME_SYSTEM    = UTC
MEAN_ELEMENT_THEORY = SGP/SGP4

EPOCH          = 2026-02-15T19:41:15.129600
MEAN_MOTION    = 15.21767542
ECCENTRICITY   = .002172
INCLINATION    = 81.1749
RA_OF_ASC_NODE = 186.3927
ARG_OF_PERICENTER = 253.0125
MEAN_ANOMALY   = 106.8726

EPHEMERIS_TYPE = 0
CLASSIFICATION_TYPE = U
NORAD_CAT_ID   = 13068
ELEMENT_SET_NO = 999
REV_AT_EPOCH   = 40102
BSTAR          = .23631E-3
MEAN_MOTION_DOT = .5417E-4
MEAN_MOTION_DDOT = 0

CCSDS_OMM_VERS = 2.0
CREATION_DATE  = 
ORIGINATOR     = 

OBJECT_NAME    = SL-3 R/B
OBJECT_ID      = 1982-039B
CENTER_NAME    = EARTH
REF_FRAME      = TEME
TIME_SYSTEM    = UTC
MEAN_ELEMENT_THEORY = SGP/SGP4

EPOCH          = 2026-02-15T18:56:45.731616
MEAN_MOTION    = 15.09954793
ECCENTRICITY   = .0030035
INCLINATION    = 81.1595
RA_OF_ASC_NODE = 241.2071
ARG_OF_PERICENTER = 36.0688
MEAN_ANOMALY   = 324.2555

EPHEMERIS_TYPE = 0
CLASSIFICATION_TYPE = U
NORAD_CAT_ID   = 13154
ELEMENT_SET_NO = 999
REV_AT_EPOCH   = 37833
BSTAR          = .16682E-3
MEAN_MOTION_DOT = .2758E-4
MEAN_MOTION_DDOT = 0

